NORAD_CAT_ID,OBJECT_NAME,OBJECT_TYPE,EPOCH,MEAN_MOTION,ECCENTRICITY,INCLINATION,RA_OF_ASC_NODE,ARG_OF_PERICENTER,MEAN_ANOMALY,BSTAR,MEAN_MOTION_DOT,MEAN_MOTION_DDOT,TLE_LINE0,TLE_LINE1,TLE_LINE2,SEMIMAJOR_AXIS,PERIOD,APOGEE,PERIGEE,DECAYED
53991.0,STARLINK-5118,PAYLOAD,2024-06-14 16:53:33,15.08837546,0.0001155,53.2152,165.6387,88.4122,271.7003,9.6143e-05,1.243e-05,0.0,0 STARLINK-5118,1 53991U 22125AD  24166.70385757  .00001243  00000-0  96143-4 0  9997,2 53991  53.2152 165.6387 0001155  88.4122 271.7003 15.08837546 94033,6917.888,95.438,540.552,538.954,0.0
53991.0,STARLINK-5118,PAYLOAD,2024-06-15 07:12:01,15.0884227,0.00012,53.2153,162.9624,88.966,271.147,6.238e-05,7.05e-06,0.0,0 STARLINK-5118,1 53991U 22125AD  24167.30001543  .00000705  00000-0  62380-4 0  9990,2 53991  53.2153 162.9624 0001200  88.9660 271.1470 15.08842270 94123,6917.873,95.437,540.569,538.908,0.0
53991.0,STARLINK-5118,PAYLOAD,2024-06-15 23:05:52,15.08840831,0.0001194,53.2155,159.9887,92.5536,267.5593,8.7939e-05,1.112e-05,0.0,0 STARLINK-5118,1 53991U 22125AD  24167.96241531  .00001112  00000-0  87939-4 0  9995,2 53991  53.2155 159.9887 0001194  92.5536 267.5593 15.08840831 94224,6917.878,95.438,540.569,538.917,0.0
53991.0,STARLINK-5118,PAYLOAD,2024-06-16 07:02:48,15.08842786,0.0001222,53.2155,158.5019,91.927,268.1862,8.3151e-05,1.036e-05,0.0,0 STARLINK-5118,1 53991U 22125AD  24168.29361453  .00001036  00000-0  83151-4 0  9995,2 53991  53.2155 158.5019 0001222  91.9270 268.1862 15.08842786 94278,6917.872,95.437,540.582,538.892,0.0
53991.0,STARLINK-5118,PAYLOAD,2024-06-16 22:56:40,15.08839249,0.000129,53.2153,155.5274,89.7254,270.3886,2.3633e-05,8.8e-07,0.0,0 STARLINK-5118,1 53991U 22125AD  24168.95601855  .00000088  00000-0  23633-4 0  9996,2 53991  53.2153 155.5274 0001290  89.7254 270.3886 15.08839249 94370,6917.883,95.438,540.64,538.855,0.0
53991.0,STARLINK-5118,PAYLOAD,2024-06-17 22:47:26,15.08841854,0.0001325,53.2159,151.0667,90.1128,270.0016,4.9065e-05,4.93e-06,0.0,0 STARLINK-5118,1 53991U 22125AD  24169.94961594  .00000493  00000-0  49065-4 0  9992,2 53991  53.2159 151.0667 0001325  90.1128 270.0016 15.08841854 94522,6917.875,95.437,540.656,538.823,0.0
53991.0,STARLINK-5118,PAYLOAD,2024-06-18 08:19:45,15.0884558,0.0001324,53.2157,149.2828,89.1709,270.9435,8.0835e-05,9.99e-06,0.0,0 STARLINK-5118,1 53991U 22125AD  24170.34705165  .00000999  00000-0  80835-4 0  9999,2 53991  53.2157 149.2828 0001324  89.1709 270.9435 15.08845580 94580,6917.863,95.437,540.644,538.812,0.0
53991.0,STARLINK-5118,PAYLOAD,2024-06-18 16:16:41,15.08841608,0.000132,53.2158,147.7958,89.6749,270.4395,6.6034e-05,7.63e-06,0.0,0 STARLINK-5118,1 53991U 22125AD  24170.67825368  .00000763  00000-0  66034-4 0  9997,2 53991  53.2158 147.7958 0001320  89.6749 270.4395 15.08841608 94636,6917.875,95.437,540.654,538.827,0.0
53991.0,STARLINK-5118,PAYLOAD,2024-06-19 04:59:46,15.08838578,0.0001368,53.2165,145.4163,94.2345,265.8803,5.5957e-05,6.03e-06,0.0,0 STARLINK-5118,1 53991U 22125AD  24171.20817623  .00000603  00000-0  55957-4 0  9997,2 53991  53.2165 145.4163 0001368  94.2345 265.8803 15.08838578 94794,6917.885,95.438,540.696,538.803,0.0
53991.0,STARLINK-5118,PAYLOAD,2024-06-19 22:29:01,15.0883685,0.000147,53.2169,142.145,97.8826,262.2333,-3.7815e-05,-8.9e-06,0.0,0 STARLINK-5118,1 53991U 22125AD  24171.93682105 -.00000890  00000-0 -37815-4 0  9995,2 53991  53.2169 142.1450 0001470  97.8826 262.2333 15.08836850 94822,6917.89,95.438,540.772,538.738,0.0
53991.0,STARLINK-5118,PAYLOAD,2024-06-20 08:01:19,15.08839211,0.0001306,53.2165,140.3635,90.4091,269.7051,-1.6162e-06,-3.14e-06,0.0,0 STARLINK-5118,1 53991U 22125AD  24172.33425888 -.00000314  00000-0 -16162-5 0  9997,2 53991  53.2165 140.3635 0001306  90.4091 269.7051 15.08839211 94883,6917.883,95.438,540.651,538.844,0.0
53991.0,STARLINK-5118,PAYLOAD,2024-06-20 19:09:02,15.08833593,0.0001334,53.2164,138.2819,91.9655,268.149,6.0044e-06,-1.92e-06,0.0,0 STARLINK-5118,1 53991U 22125AD  24172.79794313 -.00000192  00000-0  60044-5 0  9990,2 53991  53.2164 138.2819 0001334  91.9655 268.1490 15.08833593 95030,6917.9,95.438,540.688,538.842,0.0
53991.0,STARLINK-5118,PAYLOAD,2024-06-21 07:52:06,15.08842066,0.0001312,53.2162,135.9026,90.6601,269.4542,6.365e-05,7.25e-06,0.0,0 STARLINK-5118,1 53991U 22125AD  24173.32785677  .00000725  00000-0  63650-4 0  9999,2 53991  53.2162 135.9026 0001312  90.6601 269.4542 15.08842066 95111,6917.874,95.437,540.647,538.831,0.0
53991.0,STARLINK-5118,PAYLOAD,2024-06-22 02:56:45,15.0883257,0.0001373,53.2164,132.3322,82.2069,277.9079,1.8823e-05,1.2e-07,0.0,0 STARLINK-5118,1 53991U 22125AD  24174.12274774  .00000012  00000-0  18823-4 0  9990,2 53991  53.2164 132.3322 0001373  82.2069 277.9079 15.08832570 95236,6917.903,95.438,540.718,538.818,0.0
53991.0,STARLINK-5118,PAYLOAD,2024-06-22 07:42:54,15.08834522,0.0001385,53.2165,131.4399,81.5024,278.6125,3.2558e-05,2.3e-06,0.0,0 STARLINK-5118,1 53991U 22125AD  24174.32146691  .00000230  00000-0  32558-4 0  9991,2 53991  53.2165 131.4399 0001385  81.5024 278.6125 15.08834522 95180,6917.897,95.438,540.72,538.804,0.0
53991.0,STARLINK-5118,PAYLOAD,2024-06-23 04:22:54,15.08845084,0.0001389,53.2166,127.5735,90.9698,269.1453,7.2585e-05,8.68e-06,0.0,0 STARLINK-5118,1 53991U 22125AD  24175.18257959  .00000868  00000-0  72585-4 0  9997,2 53991  53.2166 127.5735 0001389  90.9698 269.1453 15.08845084 95393,6917.865,95.437,540.691,538.769,0.0
53991.0,STARLINK-5118,PAYLOAD,2024-06-23 05:58:17,15.08845629,0.0001397,53.2167,127.2762,92.6067,267.5085,7.6514e-05,9.3e-06,0.0,0 STARLINK-5118,1 53991U 22125AD  24175.24881892  .00000930  00000-0  76514-4 0  9999,2 53991  53.2167 127.2762 0001397  92.6067 267.5085 15.08845629 95320,6917.863,95.437,540.695,538.762,0.0
53991.0,STARLINK-5118,PAYLOAD,2024-06-23 20:16:46,15.08837904,0.0001542,53.2169,124.6022,80.3053,279.8113,7.3205e-05,8.77e-06,0.0,0 STARLINK-5118,1 53991U 22125AD  24175.84498478  .00000877  00000-0  73205-4 0  9993,2 53991  53.2169 124.6022 0001542  80.3053 279.8113 15.08837904 95496,6917.887,95.438,540.819,538.685,0.0
53991.0,STARLINK-5118,PAYLOAD,2024-06-24 04:13:42,15.08841569,0.0001589,53.2173,123.1157,76.8127,283.3043,6.0402e-05,6.73e-06,0.0,0 STARLINK-5118,1 53991U 22125AD  24176.17618349  .00000673  00000-0  60402-4 0  9990,2 53991  53.2173 123.1157 0001589  76.8127 283.3043 15.08841569 95468,6917.876,95.437,540.84,538.641,0.0
53991.0,STARLINK-5118,PAYLOAD,2024-06-25 02:29:06,15.08840924,0.0001642,53.2173,118.9531,76.9227,283.1949,-7.8129e-06,-4.12e-06,0.0,0 STARLINK-5118,1 53991U 22125AD  24177.10354610 -.00000412  00000-0 -78129-5 0  9991,2 53991  53.2173 118.9531 0001642  76.9227 283.1949 15.08840924 95689,6917.878,95.437,540.878,538.607,0.0
53991.0,STARLINK-5118,PAYLOAD,2024-06-26 02:19:53,15.08841791,0.0001529,53.2169,114.492,83.2752,276.8414,4.1169e-05,3.67e-06,0.0,0 STARLINK-5118,1 53991U 22125AD  24178.09714286  .00000367  00000-0  41169-4 0  9999,2 53991  53.2169 114.4920 0001529  83.2752 276.8414 15.08841791 95752,6917.875,95.437,540.798,538.682,0.0
53991.0,STARLINK-5118,PAYLOAD,2024-06-26 22:59:53,15.08843355,0.000144,53.2166,110.6264,91.9339,268.1818,7.9496e-05,9.78e-06,0.0,0 STARLINK-5118,1 53991U 22125AD  24178.95825855  .00000978  00000-0  79496-4 0  9991,2 53991  53.2166 110.6264 0001440  91.9339 268.1818 15.08843355 95881,6917.87,95.437,540.731,538.739,0.0
53991.0,STARLINK-5118,PAYLOAD,2024-06-27 02:10:39,15.08845703,0.0001448,53.2161,110.0297,82.1511,277.9646,9.7677e-05,1.267e-05,0.0,0 STARLINK-5118,1 53991U 22125AD  24179.09073653  .00001267  00000-0  97677-4 0  9991,2 53991  53.2161 110.0297 0001448  82.1511 277.9646 15.08845703 95985,6917.863,95.437,540.73,538.726,0.0
53991.0,STARLINK-5118,PAYLOAD,2024-06-27 22:50:41,15.08835998,0.0001249,53.2161,106.1669,86.6465,273.467,-3.7365e-05,-8.82e-06,0.0,0 STARLINK-5118,1 53991U 22125AD  24179.95186916 -.00000882  00000-0 -37365-4 0  9995,2 53991  53.2161 106.1669 0001249  86.6465 273.4670 15.08835998 96030,6917.893,95.438,540.622,538.894,0.0
53991.0,STARLINK-5118,PAYLOAD,2024-06-28 02:01:27,15.0883764,0.0001266,53.216,105.573,91.0158,269.0979,-2.9932e-05,-7.64e-06,0.0,0 STARLINK-5118,1 53991U 22125AD  24180.08434798 -.00000764  00000-0 -29932-4 0  9995,2 53991  53.2160 105.5730 0001266  91.0158 269.0979 15.08837640 96139,6917.888,95.438,540.628,538.877,0.0
53991.0,STARLINK-5118,PAYLOAD,2024-06-28 11:33:46,15.08836296,0.0001138,53.2149,103.7865,85.5659,274.5463,-1.437e-05,-5.16e-06,0.0,0 STARLINK-5118,1 53991U 22125AD  24180.48178936 -.00000516  00000-0 -14370-4 0  9993,2 53991  53.2149 103.7865 0001138  85.5659 274.5463 15.08836296 96110,6917.892,95.438,540.544,538.969,0.0
53991.0,STARLINK-5118,PAYLOAD,2024-06-28 22:41:28,15.08841453,0.0001082,53.2149,101.7043,71.3759,288.735,-6.939e-05,-1.392e-05,0.0,0 STARLINK-5118,1 53991U 22125AD  24180.94546955 -.00001392  00000-0 -69390-4 0  9999,2 53991  53.2149 101.7043 0001082  71.3759 288.7350 15.08841453 96188,6917.876,95.437,540.489,538.992,0.0
53991.0,STARLINK-5118,PAYLOAD,2024-06-29 03:27:36,15.08856972,0.0001276,53.2153,100.811,84.3256,275.7882,0.00014304,1.99e-05,0.0,0 STARLINK-5118,1 53991U 22125AD  24181.14417187  .00001990  00000-0  14304-3 0  9992,2 53991  53.2153 100.8110 0001276  84.3256 275.7882 15.08856972 96299,6917.829,95.436,540.576,538.811,0.0
53991.0,STARLINK-5118,PAYLOAD,2024-06-29 11:24:33,15.08843001,0.0001991,53.2156,99.3238,55.6679,304.4501,7.4488e-05,8.98e-06,0.0,0 STARLINK-5118,1 53991U 22125AD  24181.47538543  .00000898  00000-0  74488-4 0  9994,2 53991  53.2156  99.3238 0001991  55.6679 304.4501 15.08843001 96342,6917.871,95.437,541.114,538.359,0.0
53991.0,STARLINK-5118,PAYLOAD,2024-06-29 22:32:16,15.0882224,0.0001135,53.2149,97.2434,78.0811,282.0308,-4.0797e-05,-9.37e-06,0.0,0 STARLINK-5118,1 53991U 22125AD  24181.93908340 -.00000937  00000-0 -40797-4 0  9993,2 53991  53.2149  97.2434 0001135  78.0811 282.0308 15.08822240 96333,6917.935,95.439,540.585,539.014,0.0
